[{"OBJECT_NAME":"STARLINK-2391","OBJECT_ID":"2021-018Z","EPOCH":"2026-03-09T21:58:31.164672","MEAN_MOTION":15.30195916,"ECCENTRICITY":9.533e-5,"INCLINATION":53.16,"RA_OF_ASC_NODE":254.5567,"ARG_OF_PERICENTER":85.2357,"MEAN_ANOMALY":274.8753,"EPHEMERIS_TYPE":0,"CLASSIFICATION_TYPE":"U","NORAD_CAT_ID":47810,"ELEMENT_SET_NO":999,"REV_AT_EPOCH":27663,"BSTAR":-0.00010784485,"MEAN_MOTION_DOT":-3.551e-5,"MEAN_MOTION_DDOT":0},{"OBJECT_NAME":"TRANSPORTER-12 OBJECT AZ","OBJECT_ID":"2025-009AZ","EPOCH":"2026-03-09T17:02:46.667040","MEAN_MOTION":15.30349724,"ECCENTRICITY":9.87e-5,"INCLINATION":97.3981,"RA_OF_ASC_NODE":151.9913,"ARG_OF_PERICENTER":45.3581,"MEAN_ANOMALY":314.774,"EPHEMERIS_TYPE":0,"CLASSIFICATION_TYPE":"U","NORAD_CAT_ID":62656,"ELEMENT_SET_NO":999,"REV_AT_EPOCH":6379,"BSTAR":0.00054902545,"MEAN_MOTION_DOT":0.00016057,"MEAN_MOTION_DDOT":0}]
